{
  "type": "FeatureCollection",
  "features": [
    {
      "type": "Feature",
      "properties": {
        "norad_id": 15362,
        "name": "NOVA 3",
        "group": "nnss",
        "lat": 82.35113003514195,
        "lon": -98.41059865365804,
        "alt_km": 1187.1871243445003,
        "timestamp": "2025-12-25T07:41:09.991643+00:00",
        "meta_object_name": "NOVA 3",
        "meta_object_id": "1984-110A",
        "meta_epoch": "2025-12-24T17:15:40.667616",
        "meta_mean_motion": 13.23046037,
        "meta_eccentricity": 0.0029874,
        "meta_inclination": 90.1217,
        "meta_ra_of_asc_node": 80.6756,
        "meta_arg_of_pericenter": 297.3866,
        "meta_mean_anomaly": 179.0949,
        "meta_ephemeris_type": 0,
        "meta_classification_type": "U",
        "meta_norad_cat_id": 15362,
        "meta_element_set_no": 999,
        "meta_rev_at_epoch": 98857,
        "meta_bstar": 0.00014710311,
        "meta_mean_motion_dot": 7e-07,
        "meta_mean_motion_ddot": 0,
        "tle_line1": "1 15362U 84110A   25358.71922069  .00000070  00000+0  14710-3 0  9992",
        "tle_line2": "2 15362  90.1217  80.6756 0029874 297.3866 179.0949 13.23046037988577"
      },
      "geometry": {
        "type": "Point",
        "coordinates": [
          -98.41059865365804,
          82.35113003514195
        ]
      }
    },
    {
      "type": "Feature",
      "properties": {
        "norad_id": 15935,
        "name": "OSCAR 30",
        "group": "nnss",
        "lat": 47.68340467999568,
        "lon": 99.87104522922749,
        "alt_km": 993.007331363221,
        "timestamp": "2025-12-25T07:41:09.991653+00:00",
        "meta_object_name": "OSCAR 30",
        "meta_object_id": "1985-066A",
        "meta_epoch": "2025-12-24T17:39:41.831712",
        "meta_mean_motion": 13.36080379,
        "meta_eccentricity": 0.01688863,
        "meta_inclination": 90.1653,
        "meta_ra_of_asc_node": 100.0432,
        "meta_arg_of_pericenter": 50.3743,
        "meta_mean_anomaly": 68.3865,
        "meta_ephemeris_type": 0,
        "meta_classification_type": "U",
        "meta_norad_cat_id": 15935,
        "meta_element_set_no": 999,
        "meta_rev_at_epoch": 96613,
        "meta_bstar": 0.00021298167,
        "meta_mean_motion_dot": 1.28e-06,
        "meta_mean_motion_ddot": 0,
        "tle_line1": "1 15935U 85066A   25358.73590083  .00000128  00000+0  21298-3 0  9991",
        "tle_line2": "2 15935  90.1653 100.0432 0168886  50.3743  68.3865 13.36080379966139"
      },
      "geometry": {
        "type": "Point",
        "coordinates": [
          99.87104522922749,
          47.68340467999568
        ]
      }
    },
    {
      "type": "Feature",
      "properties": {
        "norad_id": 15936,
        "name": "OSCAR 24",
        "group": "nnss",
        "lat": 61.54337505369667,
        "lon": -87.1414274394451,
        "alt_km": 1059.3210989365134,
        "timestamp": "2025-12-25T07:41:09.991664+00:00",
        "meta_object_name": "OSCAR 24",
        "meta_object_id": "1985-066B",
        "meta_epoch": "2025-12-24T20:54:20.922336",
        "meta_mean_motion": 13.35937478,
        "meta_eccentricity": 0.01700665,
        "meta_inclination": 90.1791,
        "meta_ra_of_asc_node": 92.52,
        "meta_arg_of_pericenter": 56.4546,
        "meta_mean_anomaly": 61.219,
        "meta_ephemeris_type": 0,
        "meta_classification_type": "U",
        "meta_norad_cat_id": 15936,
        "meta_element_set_no": 999,
        "meta_rev_at_epoch": 96805,
        "meta_bstar": 0.00015449613,
        "meta_mean_motion_dot": 9.5e-07,
        "meta_mean_motion_ddot": 0,
        "tle_line1": "1 15936U 85066B   25358.87107549  .00000095  00000+0  15450-3 0  9994",
        "tle_line2": "2 15936  90.1791  92.5200 0170066  56.4546  61.2190 13.35937478968058"
      },
      "geometry": {
        "type": "Point",
        "coordinates": [
          -87.1414274394451,
          61.54337505369667
        ]
      }
    },
    {
      "type": "Feature",
      "properties": {
        "norad_id": 17070,
        "name": "POLAR BEAR",
        "group": "nnss",
        "lat": -69.41789179689165,
        "lon": -177.7507820238702,
        "alt_km": 1015.0519912324862,
        "timestamp": "2025-12-25T07:41:09.991674+00:00",
        "meta_object_name": "POLAR BEAR",
        "meta_object_id": "1986-088A",
        "meta_epoch": "2025-12-24T22:07:10.327584",
        "meta_mean_motion": 13.75253229,
        "meta_eccentricity": 0.00412851,
        "meta_inclination": 89.617,
        "meta_ra_of_asc_node": 183.2859,
        "meta_arg_of_pericenter": 84.2247,
        "meta_mean_anomaly": 34.3522,
        "meta_ephemeris_type": 0,
        "meta_classification_type": "U",
        "meta_norad_cat_id": 17070,
        "meta_element_set_no": 999,
        "meta_rev_at_epoch": 96146,
        "meta_bstar": 9.5098307e-05,
        "meta_mean_motion_dot": 1.03e-06,
        "meta_mean_motion_ddot": 0,
        "tle_line1": "1 17070U 86088A   25358.92164731  .00000103  00000+0  95098-4 0  9999",
        "tle_line2": "2 17070  89.6170 183.2859 0041285  84.2247  34.3522 13.75253229961465"
      },
      "geometry": {
        "type": "Point",
        "coordinates": [
          -177.7507820238702,
          -69.41789179689165
        ]
      }
    },
    {
      "type": "Feature",
      "properties": {
        "norad_id": 18361,
        "name": "OSCAR 27",
        "group": "nnss",
        "lat": -77.06021142637393,
        "lon": -101.88461977382586,
        "alt_km": 1070.5180548831413,
        "timestamp": "2025-12-25T07:41:09.991685+00:00",
        "meta_object_name": "OSCAR 27",
        "meta_object_id": "1987-080A",
        "meta_epoch": "2025-12-24T17:55:02.715744",
        "meta_mean_motion": 13.44909135,
        "meta_eccentricity": 0.01039285,
        "meta_inclination": 90.3736,
        "meta_ra_of_asc_node": 79.7212,
        "meta_arg_of_pericenter": 189.2422,
        "meta_mean_anomaly": 170.6816,
        "meta_ephemeris_type": 0,
        "meta_classification_type": "U",
        "meta_norad_cat_id": 18361,
        "meta_element_set_no": 999,
        "meta_rev_at_epoch": 87718,
        "meta_bstar": 0.00017485436,
        "meta_mean_motion_dot": 1.14e-06,
        "meta_mean_motion_ddot": 0,
        "tle_line1": "1 18361U 87080A   25358.74655921  .00000114  00000+0  17485-3 0  9997",
        "tle_line2": "2 18361  90.3736  79.7212 0103928 189.2422 170.6816 13.44909135877187"
      },
      "geometry": {
        "type": "Point",
        "coordinates": [
          -101.88461977382586,
          -77.06021142637393
        ]
      }
    },
    {
      "type": "Feature",
      "properties": {
        "norad_id": 18362,
        "name": "OSCAR 29",
        "group": "nnss",
        "lat": -68.15436434857646,
        "lon": -100.73313901539773,
        "alt_km": 1037.5863512037122,
        "timestamp": "2025-12-25T07:41:09.991695+00:00",
        "meta_object_name": "OSCAR 29",
        "meta_object_id": "1987-080B",
        "meta_epoch": "2025-12-24T18:31:37.262784",
        "meta_mean_motion": 13.44450686,
        "meta_eccentricity": 0.01047338,
        "meta_inclination": 90.3749,
        "meta_ra_of_asc_node": 80.1821,
        "meta_arg_of_pericenter": 212.3351,
        "meta_mean_anomaly": 262.8592,
        "meta_ephemeris_type": 0,
        "meta_classification_type": "U",
        "meta_norad_cat_id": 18362,
        "meta_element_set_no": 999,
        "meta_rev_at_epoch": 87671,
        "meta_bstar": 0.00016990363,
        "meta_mean_motion_dot": 1.1e-06,
        "meta_mean_motion_ddot": 0,
        "tle_line1": "1 18362U 87080B   25358.77195906  .00000110  00000+0  16990-3 0  9999",
        "tle_line2": "2 18362  90.3749  80.1821 0104733 212.3351 262.8592 13.44450686876713"
      },
      "geometry": {
        "type": "Point",
        "coordinates": [
          -100.73313901539773,
          -68.15436434857646
        ]
      }
    },
    {
      "type": "Feature",
      "properties": {
        "norad_id": 19070,
        "name": "OSCAR 23",
        "group": "nnss",
        "lat": -11.815024834041182,
        "lon": 16.84914664488937,
        "alt_km": 1290.847827996673,
        "timestamp": "2025-12-25T07:41:09.991705+00:00",
        "meta_object_name": "OSCAR 23",
        "meta_object_id": "1988-033A",
        "meta_epoch": "2025-12-24T19:56:45.202272",
        "meta_mean_motion": 13.27789006,
        "meta_eccentricity": 0.01904704,
        "meta_inclination": 90.3203,
        "meta_ra_of_asc_node": 16.7669,
        "meta_arg_of_pericenter": 146.3829,
        "meta_mean_anomaly": 25.8694,
        "meta_ephemeris_type": 0,
        "meta_classification_type": "U",
        "meta_norad_cat_id": 19070,
        "meta_element_set_no": 999,
        "meta_rev_at_epoch": 82413,
        "meta_bstar": 0.00010964086,
        "meta_mean_motion_dot": 6.4e-07,
        "meta_mean_motion_ddot": 0,
        "tle_line1": "1 19070U 88033A   25358.83107873  .00000064  00000+0  10964-3 0  9991",
        "tle_line2": "2 19070  90.3203  16.7669 0190470 146.3829  25.8694 13.27789006824130"
      },
      "geometry": {
        "type": "Point",
        "coordinates": [
          16.84914664488937,
          -11.815024834041182
        ]
      }
    }
  ]
}